ONEWEB-0309             
1 49095U 21075W   26170.51898707  .00000056  00000+0  11105-3 0  9994
2 49095  87.9129   5.3990 0002037 102.5979 257.5381 13.17648531233880
ONEWEB-0310             
1 49096U 21075X   26170.06529435 -.00000529  00000+0 -15046-2 0  9998
2 49096  87.8937 350.3068 0001834  92.1306 268.0032 13.12441116235436
ONEWEB-0311             
1 49097U 21075Y   26170.29793149 -.00000047  00000+0 -15525-3 0  9997
2 49097  87.9133   5.4426 0002229  81.2432 278.8952 13.17649923233901
ONEWEB-0312             
1 49098U 21075Z   26170.23718621 -.00000062  00000+0 -19305-3 0  9991
2 49098  87.9130   5.4656 0002196  90.4586 269.6797 13.17652874233879
ONEWEB-0313             
1 49099U 21075AA  26170.24210410 -.00000016  00000+0 -75144-4 0  9999
2 49099  87.9129   5.4701 0001965  86.0626 274.0730 13.17648784233869
ONEWEB-0314             
1 49100U 21075AB  26170.51224681  .00000034  00000+0  55546-4 0  9999
2 49100  87.9142   5.3892 0002247  90.3389 269.8000 13.17649072233879
ONEWEB-0315             
1 49101U 21075AC  26170.49562087  .00000368  00000+0  98777-3 0  9994
2 49101  87.8948 350.1852 0002030  81.7916 278.3443 13.12442871235477
ONEWEB-0316             
1 49102U 21075AD  26170.35923277  .00000007  00000+0 -15582-4 0  9997
2 49102  87.9166 335.0236 0001908  92.1549 267.9802 13.18686867237498
ONEWEB-0317             
1 49103U 21075AE  26170.57524746  .00000297  00000+0  78990-3 0  9991
2 49103  87.8949 350.1932 0001620 114.9642 245.1655 13.12442645235508
ONEWEB-0318             
1 49104U 21075AF  26170.50761980  .00000010  00000+0 -69906-5 0  9991
2 49104  87.9172 334.9955 0001989  85.6929 274.4431 13.18685531237477
ONEWEB-0319             
1 49105U 21075AG  26170.29961584  .00000117  00000+0  26838-3 0  9992
2 49105  87.9133   5.4476 0002145  76.0018 284.1352 13.17649647233889
ONEWEB-0323             
1 49106U 21075AH  26170.55661025  .00000375  00000+0  10082-2 0  9998
2 49106  87.8950 350.1781 0002274  81.1453 278.9933 13.12444820234864
ONEWEB-0329             
1 49107U 21075AJ  26170.08024686 -.00000018  00000+0 -78893-4 0  9995
2 49107  87.9132   5.4921 0002023  88.9308 271.2055 13.17649321233835
ONEWEB-0330             
1 49108U 21075AK  26169.04065967  .00023926  00000+0  61248-1 0  9991
2 49108  87.9135   5.7192 0002036  91.8176 268.3189 13.17848881233738
ONEWEB-0292             
1 49186U 21083A   26170.37471133 -.00000163  00000+0 -48010-3 0  9994
2 49186  87.8953 319.8024 0001943  91.8556 268.2796 13.13472230231213
ONEWEB-0303             
1 49187U 21083B   26170.50424262  .00000022  00000+0  22709-4 0  9991
2 49187  87.9170 334.9950 0001955  89.3975 270.7381 13.18686972230281
ONEWEB-0306             
1 49188U 21083C   26170.49412113  .00000043  00000+0  76340-4 0  9995
2 49188  87.9173 334.9851 0001779 100.4348 259.6985 13.18686853230327
ONEWEB-0307             
1 49189U 21083D   26170.36878206 -.00000225  00000+0 -65236-3 0  9996
2 49189  87.8958 319.8004 0001938  95.4736 264.6614 13.13470546231210
ONEWEB-0320             
1 49190U 21083E   26170.36260034 -.00000015  00000+0 -70516-4 0  9997
2 49190  87.9162 335.0289 0001820  93.6425 266.4915 13.18686044230265
ONEWEB-0321             
1 49191U 21083F   26170.54950716  .00000036  00000+0  57529-4 0  9991
2 49191  87.9195 273.9639 0001873 108.2745 251.8592 13.20772061237148
ONEWEB-0322             
1 49192U 21083G   26170.36453321 -.00000256  00000+0 -73671-3 0  9993
2 49192  87.8955 319.8019 0001442 104.6253 255.5036 13.13468420231208
ONEWEB-0324             
1 49193U 21083H   26170.48737789  .00000056  00000+0  10972-3 0  9991
2 49193  87.9174 334.9917 0002006  97.6897 262.4463 13.18685483230306
ONEWEB-0325             
1 49194U 21083J   26170.49075303  .00000070  00000+0  14405-3 0  9991
2 49194  87.9163 334.9994 0001811  91.6671 268.4669 13.18686054230317
ONEWEB-0326             
1 49195U 21083K   26170.50606970  .00000037  00000+0  61137-4 0  9992
2 49195  87.9172 334.9940 0001953  85.0106 275.1250 13.18685014230301
ONEWEB-0327             
1 49196U 21083L   26170.50578938  .00000042  00000+0  75009-4 0  9994
2 49196  87.9164 334.9981 0001881  79.9433 280.1911 13.18684897230323
ONEWEB-0328             
1 49197U 21083M   26170.35439242 -.00000128  00000+0 -38467-3 0  9995
2 49197  87.8964 319.7769 0001959  98.9845 261.1506 13.13469535231189
ONEWEB-0331             
1 49198U 21083N   26170.49917729  .00000032  00000+0  48272-4 0  9990
2 49198  87.9172 334.9894 0002068  85.8228 274.3141 13.18686499230312
ONEWEB-0333             
1 49199U 21083P   26170.34931357 -.00000017  00000+0 -81708-4 0  9994
2 49199  87.8955 319.8043 0001799  95.7508 264.3827 13.13469280231199
ONEWEB-0334             
1 49200U 21083Q   26170.56460121  .00000108  00000+0  23121-3 0  9990
2 49200  87.9195 273.9715 0001533 129.8544 230.2724 13.21260969237107
ONEWEB-0335             
1 49201U 21083R   26170.34423595  .00000170  00000+0  43098-3 0  9995
2 49201  87.8955 319.8026 0001952  93.0521 267.0831 13.13470506231201
